H1 CPF 01  gfz 2021 04 04 12  5942 terrasarx 
H2 0702601  6201 31698    2021 04 04 12 59 42 2021 04 09 00 00 42   120 1 1  0 0 0
H9
10 0 59311   2862.000000  0    1333451.241   2379420.773  -6332570.257
10 0 59311   2982.000000  0    1209480.000   1514958.031  -6616997.540
10 0 59311   3102.000000  0    1049222.530    626740.786  -6785986.045
10 0 59311   3222.000000  0     855185.911   -269227.696  -6836629.891
10 0 59311   3342.000000  0     630736.923  -1156872.062  -6768059.410
10 0 59311   3462.000000  0     380044.532  -2020325.884  -6581452.810
10 0 59311   3582.000000  0     108005.374  -2844206.782  -6280018.760
10 0 59311   3702.000000  0    -179848.631  -3613886.462  -5868949.147
10 0 59311   3822.000000  0    -477458.039  -4315748.717  -5355337.796
10 0 59311   3942.000000  0    -778357.192  -4937431.541  -4748069.472
10 0 59311   4062.000000  0   -1075808.470  -5468050.684  -4057677.783
10 0 59311   4182.000000  0   -1362946.721  -5898399.224  -3296172.339
10 0 59311   4302.000000  0   -1632930.570  -6221118.204  -2476837.354
10 0 59311   4422.000000  0   -1879097.616  -6430834.905  -1614004.573
10 0 59311   4542.000000  0   -2095119.737  -6524264.734   -722802.724
10 0 59311   4662.000000  0   -2275154.525  -6500272.489    181111.715
10 0 59311   4782.000000  0   -2413989.209  -6359890.363   1081836.438
10 0 59311   4902.000000  0   -2507172.896  -6106292.143   1963511.616
10 0 59311   5022.000000  0   -2551133.608  -5744723.908   2810608.419
10 0 59311   5142.000000  0   -2543276.694  -5282392.847   3608210.809
10 0 59311   5262.000000  0   -2482062.155  -4728317.579   4342284.047
10 0 59311   5382.000000  0   -2367059.692  -4093144.776   4999924.584
10 0 59311   5502.000000  0   -2198980.794  -3388936.367   5569587.893
10 0 59311   5622.000000  0   -1979685.721  -2628931.122   6041288.720
10 0 59311   5742.000000  0   -1712165.757  -1827289.462   6406770.739
10 0 59311   5862.000000  0   -1400502.094   -998825.703   6659645.852
10 0 59311   5982.000000  0   -1049802.604   -158730.505   6795499.480
10 0 59311   6102.000000  0    -666118.249    677707.652   6811961.301
10 0 59311   6222.000000  0    -256338.807   1495379.650   6708744.922
10 0 59311   6342.000000  0     171930.858   2279628.425   6487652.760
10 0 59311   6462.000000  0     610511.595   3016511.528   6152546.126
10 0 59311   6582.000000  0    1050804.872   3693049.490   5709282.119
10 0 59311   6702.000000  0    1483959.833   4297457.711   5165617.007
10 0 59311   6822.000000  0    1901050.015   4819357.118   4531076.750
10 0 59311   6942.000000  0    2293256.717   5249959.466   3816794.824
10 0 59311   7062.000000  0    2652054.843   5582221.777   3035321.247
10 0 59311   7182.000000  0    2969397.682   5810972.302   2200404.129
10 0 59311   7302.000000  0    3237895.826   5932998.134   1326742.725
10 0 59311   7422.000000  0    3450984.272   5947091.572    429722.749
10 0 59311   7542.000000  0    3603074.723   5854057.603   -474861.873
10 0 59311   7662.000000  0    3689689.750   5656679.857  -1371095.720
10 0 59311   7782.000000  0    3707574.262   5359647.214  -2243229.667
10 0 59311   7902.000000  0    3654782.385   4969442.692  -3075964.939
10 0 59311   8022.000000  0    3530736.507   4494197.071  -3854726.393
10 0 59311   8142.000000  0    3336257.661   3943512.163  -4565918.061
10 0 59311   8262.000000  0    3073568.235   3328260.225  -5197157.588
10 0 59311   8382.000000  0    2746266.381   2660362.481  -5737485.969
10 0 59311   8502.000000  0    2359273.820   1952552.954  -6177548.382
10 0 59311   8622.000000  0    1918757.992   1218133.144  -6509745.107
10 0 59311   8742.000000  0    1432031.821    470722.699  -6728350.364
10 0 59311   8862.000000  0     907432.650   -275989.177  -6829601.816
10 0 59311   8982.000000  0     354179.758  -1008490.036  -6811758.804
10 0 59311   9102.000000  0    -217784.598  -1713682.667  -6675127.119
10 0 59311   9222.000000  0    -797968.652  -2379112.292  -6422054.626
10 0 59311   9342.000000  0   -1375519.103  -2993182.740  -6056896.633
10 0 59311   9462.000000  0   -1939419.214  -3545356.619  -5585948.077
10 0 59311   9582.000000  0   -2478694.579  -4026336.517  -5017346.223
10 0 59311   9702.000000  0   -2982625.234  -4428226.432  -4360942.457
10 0 59311   9822.000000  0   -3440959.136  -4744668.026  -3628141.590
10 0 59311   9942.000000  0   -3844121.778  -4970948.682  -2831712.339
10 0 59311  10062.000000  0   -4183418.719  -5104079.429  -1985570.706
10 0 59311  10182.000000  0   -4451225.651  -5142839.725  -1104538.772
10 0 59311  10302.000000  0   -4641160.776  -5087787.586   -204083.126
10 0 59311  10422.000000  0   -4748234.708  -4941234.217    699962.017
10 0 59311  10542.000000  0   -4768973.934  -4707182.838   1591681.630
10 0 59311  10662.000000  0   -4701513.446  -4391232.070   2455369.802
10 0 59311  10782.000000  0   -4545656.417  -4000447.215   3275814.955
10 0 59311  10902.000000  0   -4302900.148  -3543203.172   4038574.669
10 0 59311  11022.000000  0   -3976427.169  -3029002.700   4730235.215
10 0 59311  11142.000000  0   -3571061.436  -2468274.371   5338648.405
10 0 59311  11262.000000  0   -3093193.163  -1872157.640   5853142.386
10 0 59311  11382.000000  0   -2550673.575  -1252279.124   6264705.742
10 0 59311  11502.000000  0   -1952680.802   -620522.620   6566141.277
10 0 59311  11622.000000  0   -1309559.172     11201.348   6752185.303
10 0 59311  11742.000000  0    -632637.760    631178.842   6819592.009
10 0 59311  11862.000000  0      65968.930   1228108.481   6767186.807
10 0 59311  11982.000000  0     773577.273   1791307.062   6595885.836
10 0 59311  12102.000000  0    1477164.346   2310900.927   6308680.611
10 0 59311  12222.000000  0    2163606.596   2777998.865   5910588.538
10 0 59311  12342.000000  0    2819924.387   3184845.774   5408571.547
10 0 59311  12462.000000  0    3433529.945   3524955.085   4811420.994
10 0 59311  12582.000000  0    3992471.727   3793215.511   4129607.606
10 0 59311  12702.000000  0    4485670.316   3985971.055   3375104.557
10 0 59311  12822.000000  0    4903146.615   4101074.227   2561178.774
10 0 59311  12942.000000  0    5236228.006   4137906.156   1702155.206
10 0 59311  13062.000000  0    5477733.360   4097366.505    813161.184
10 0 59311  13182.000000  0    5622129.481   3981831.857    -90147.372
10 0 59311  13302.000000  0    5665654.711   3795083.439   -991870.776
10 0 59311  13422.000000  0    5606406.775   3542206.138  -1876153.994
10 0 59311  13542.000000  0    5444392.961   3229461.464  -2727473.064
10 0 59311  13662.000000  0    5181541.690   2864138.580  -3530912.454
10 0 59311  13782.000000  0    4821677.040   2454387.829  -4272428.918
10 0 59311  13902.000000  0    4370454.872   2009039.314  -4939097.198
10 0 59311  14022.000000  0    3835263.785   1537411.884  -5519329.296
10 0 59311  14142.000000  0    3225095.437   1049119.018  -6003067.380
10 0 59311  14262.000000  0    2550386.005    553874.480  -6381948.182
10 0 59311  14382.000000  0    1822832.699     61301.867  -6649435.535
10 0 59311  14502.000000  0    1055190.879   -419248.159  -6800922.444
10 0 59311  14622.000000  0     261051.977   -878871.570  -6833803.360
10 0 59311  14742.000000  0    -545393.451  -1309271.531  -6747512.315
10 0 59311  14862.000000  0   -1349602.447  -1702903.691  -6543531.597
10 0 59311  14982.000000  0   -2136936.084  -2053105.850  -6225369.843
10 0 59311  15102.000000  0   -2892920.171  -2354209.256  -5798507.397
10 0 59311  15222.000000  0   -3603506.580  -2601630.301  -5270312.281
10 0 59311  15342.000000  0   -4255334.598  -2791942.399  -4649925.425
10 0 59311  15462.000000  0   -4835985.359  -2922925.035  -3948113.079
10 0 59311  15582.000000  0   -5334223.978  -2993588.894  -3177089.745
10 0 59311  15702.000000  0   -5740225.393  -3004176.548  -2350312.718
10 0 59311  15822.000000  0   -6045777.460  -2956137.785  -1482250.390
10 0 59311  15942.000000  0   -6244455.991  -2852080.087   -588128.870
10 0 59311  16062.000000  0   -6331767.013  -2695694.544    316339.110
10 0 59311  16182.000000  0   -6305252.325  -2491659.028   1215236.918
10 0 59311  16302.000000  0   -6164554.427  -2245520.843   2092733.869
10 0 59311  16422.000000  0   -5911436.986  -1963561.211   2933373.462
10 0 59311  16542.000000  0   -5549764.054  -1652645.961   3722352.864
10 0 59311  16662.000000  0   -5085436.117  -1320065.838   4445791.140
10 0 59311  16782.000000  0   -4526284.084   -973370.249   5090975.391
10 0 59311  16902.000000  0   -3881928.998   -620200.351   5646582.458
10 0 59311  17022.000000  0   -3163608.613   -268123.862   6102875.679
10 0 59311  17142.000000  0   -2383972.929     75525.176   6451871.165
10 0 59311  17262.000000  0   -1556854.512    403796.345   6687470.902
10 0 59311  17382.000000  0    -697019.370    710260.592   6805562.960
10 0 59311  17502.000000  0     180097.598    989134.611   6804088.297
10 0 59311  17622.000000  0    1058668.899   1235389.017   6683074.078
10 0 59311  17742.000000  0    1922759.003   1444839.283   6444633.318
10 0 59311  17862.000000  0    2756612.384   1614217.020   6092930.064
10 0 59311  17982.000000  0    3544941.376   1741221.022   5634112.020
10 0 59311  18102.000000  0    4273209.488   1824547.157   5076208.321
10 0 59311  18222.000000  0    4927902.872   1863897.226   4428995.530
10 0 59311  18342.000000  0    5496789.472   1859966.957   3703833.474
10 0 59311  18462.000000  0    5969157.919   1814411.310   2913466.474
10 0 59311  18582.000000  0    6336026.606   1729788.969   2071799.605
10 0 59311  18702.000000  0    6590324.754   1609486.846   1193651.928
10 0 59311  18822.000000  0    6727034.981   1457626.119    294488.795
10 0 59311  18942.000000  0    6743296.222   1278952.948   -609857.953
10 0 59311  19062.000000  0    6638462.878   1078715.692  -1503478.626
10 0 59311  19182.000000  0    6414118.655    862531.028  -2370673.026
10 0 59311  19302.000000  0    6074046.914    636243.765  -3196233.030
99
